{
    "week": 296,
    "satellites": [
        {
            "Name": "BEIDOU-3 M8 (C28)",
            "Line1": "1 43108U 18003B   24343.54914554 -.00000056  00000+0  00000+0 0  9991",
            "Line2": "2 43108  54.7990 321.5969 0005106 269.6724  90.2725  1.86230722 47013",
            "SatelliteNumber": "43108",
            "Classification": "U",
            "LaunchYear": "18",
            "LaunchNumber": "003",
            "PieceOfLaunch": "B",
            "EpochYear": "24",
            "EpochDay": 343.54914554,
            "FirstDerivativeMeanMotion": -5.6e-07,
            "SecondDerivativeMeanMotion": "00000+0",
            "BSTAR": "00000+0",
            "SetNumber": "999",
            "Inclination": 54.799,
            "RAAN": 321.5969,
            "Eccentricity": 0.0005106,
            "ArgumentOfPerigee": 269.6724,
            "MeanAnomaly": 90.2725,
            "MeanMotion": 1.86230722,
            "RevolutionNumber": "4701"
        },
        {
            "Name": "BEIDOU-3 M4 (C22)",
            "Line1": "1 43207U 18018A   24343.45333320 -.00000012  00000+0  00000+0 0  9995",
            "Line2": "2 43207  56.1658  81.5489 0003702   4.7072 355.3021  1.86230886 46399",
            "SatelliteNumber": "43207",
            "Classification": "U",
            "LaunchYear": "18",
            "LaunchNumber": "018",
            "PieceOfLaunch": "A",
            "EpochYear": "24",
            "EpochDay": 343.4533332,
            "FirstDerivativeMeanMotion": -1.2e-07,
            "SecondDerivativeMeanMotion": "00000+0",
            "BSTAR": "00000+0",
            "SetNumber": "999",
            "Inclination": 56.1658,
            "RAAN": 81.5489,
            "Eccentricity": 0.0003702,
            "ArgumentOfPerigee": 4.7072,
            "MeanAnomaly": 355.3021,
            "MeanMotion": 1.86230886,
            "RevolutionNumber": "4639"
        },
        {
            "Name": "BEIDOU-3 M3 (C21)",
            "Line1": "1 43208U 18018B   24342.98297913 -.00000008  00000+0  00000+0 0  9995",
            "Line2": "2 43208  56.1648  81.5687 0006231 308.9425  51.0090  1.86231029 46385",
            "SatelliteNumber": "43208",
            "Classification": "U",
            "LaunchYear": "18",
            "LaunchNumber": "018",
            "PieceOfLaunch": "B",
            "EpochYear": "24",
            "EpochDay": 342.98297913,
            "FirstDerivativeMeanMotion": -8e-08,
            "SecondDerivativeMeanMotion": "00000+0",
            "BSTAR": "00000+0",
            "SetNumber": "999",
            "Inclination": 56.1648,
            "RAAN": 81.5687,
            "Eccentricity": 0.0006231,
            "ArgumentOfPerigee": 308.9425,
            "MeanAnomaly": 51.009,
            "MeanMotion": 1.86231029,
            "RevolutionNumber": "4638"
        },
        {
            "Name": "BEIDOU-3 M9 (C29)",
            "Line1": "1 43245U 18029A   24343.20264766 -.00000053  00000+0  00000+0 0  9994",
            "Line2": "2 43245  54.6846 319.3156 0002230 275.3751  84.6017  1.86232315 45543",
            "SatelliteNumber": "43245",
            "Classification": "U",
            "LaunchYear": "18",
            "LaunchNumber": "029",
            "PieceOfLaunch": "A",
            "EpochYear": "24",
            "EpochDay": 343.20264766,
            "FirstDerivativeMeanMotion": -5.3e-07,
            "SecondDerivativeMeanMotion": "00000+0",
            "BSTAR": "00000+0",
            "SetNumber": "999",
            "Inclination": 54.6846,
            "RAAN": 319.3156,
            "Eccentricity": 0.000223,
            "ArgumentOfPerigee": 275.3751,
            "MeanAnomaly": 84.6017,
            "MeanMotion": 1.86232315,
            "RevolutionNumber": "4554"
        },
        {
            "Name": "BEIDOU-3 M10 (C30)",
            "Line1": "1 43246U 18029B   24343.66903189 -.00000056  00000+0  00000+0 0  9997",
            "Line2": "2 43246  54.6812 319.3265 0004082 347.5464  12.4452  1.86232648 45549",
            "SatelliteNumber": "43246",
            "Classification": "U",
            "LaunchYear": "18",
            "LaunchNumber": "029",
            "PieceOfLaunch": "B",
            "EpochYear": "24",
            "EpochDay": 343.66903189,
            "FirstDerivativeMeanMotion": -5.6e-07,
            "SecondDerivativeMeanMotion": "00000+0",
            "BSTAR": "00000+0",
            "SetNumber": "999",
            "Inclination": 54.6812,
            "RAAN": 319.3265,
            "Eccentricity": 0.0004082,
            "ArgumentOfPerigee": 347.5464,
            "MeanAnomaly": 12.4452,
            "MeanMotion": 1.86232648,
            "RevolutionNumber": "4554"
        },
        {
            "Name": "BEIDOU-2 IGSO-7 (C16)",
            "Line1": "1 43539U 18057A   24344.17778986 -.00000038  00000+0  00000+0 0  9995",
            "Line2": "2 43539  55.1538 167.8617 0078490 231.9520 214.5769  1.00257856 23563",
            "SatelliteNumber": "43539",
            "Classification": "U",
            "LaunchYear": "18",
            "LaunchNumber": "057",
            "PieceOfLaunch": "A",
            "EpochYear": "24",
            "EpochDay": 344.17778986,
            "FirstDerivativeMeanMotion": -3.8e-07,
            "SecondDerivativeMeanMotion": "00000+0",
            "BSTAR": "00000+0",
            "SetNumber": "999",
            "Inclination": 55.1538,
            "RAAN": 167.8617,
            "Eccentricity": 0.007849,
            "ArgumentOfPerigee": 231.952,
            "MeanAnomaly": 214.5769,
            "MeanMotion": 1.00257856,
            "RevolutionNumber": "2356"
        },
        {
            "Name": "BEIDOU-3 M5 (C23)",
            "Line1": "1 43581U 18062A   24343.89484973  .00000089  00000+0  00000+0 0  9991",
            "Line2": "2 43581  54.1132 201.1878 0001992 343.8215  16.2542  1.86228514 43298",
            "SatelliteNumber": "43581",
            "Classification": "U",
            "LaunchYear": "18",
            "LaunchNumber": "062",
            "PieceOfLaunch": "A",
            "EpochYear": "24",
            "EpochDay": 343.89484973,
            "FirstDerivativeMeanMotion": 8.9e-07,
            "SecondDerivativeMeanMotion": "00000+0",
            "BSTAR": "00000+0",
            "SetNumber": "999",
            "Inclination": 54.1132,
            "RAAN": 201.1878,
            "Eccentricity": 0.0001992,
            "ArgumentOfPerigee": 343.8215,
            "MeanAnomaly": 16.2542,
            "MeanMotion": 1.86228514,
            "RevolutionNumber": "4329"
        },
        {
            "Name": "BEIDOU-3 M6 (C24)",
            "Line1": "1 43582U 18062B   24343.75975920  .00000088  00000+0  00000+0 0  9993",
            "Line2": "2 43582  54.1128 201.1817 0007299  40.8170 319.3196  1.86229563 43294",
            "SatelliteNumber": "43582",
            "Classification": "U",
            "LaunchYear": "18",
            "LaunchNumber": "062",
            "PieceOfLaunch": "B",
            "EpochYear": "24",
            "EpochDay": 343.7597592,
            "FirstDerivativeMeanMotion": 8.8e-07,
            "SecondDerivativeMeanMotion": "00000+0",
            "BSTAR": "00000+0",
            "SetNumber": "999",
            "Inclination": 54.1128,
            "RAAN": 201.1817,
            "Eccentricity": 0.0007299,
            "ArgumentOfPerigee": 40.817,
            "MeanAnomaly": 319.3196,
            "MeanMotion": 1.86229563,
            "RevolutionNumber": "4329"
        },
        {
            "Name": "BEIDOU-3 M12 (C26)",
            "Line1": "1 43602U 18067A   24343.15680126  .00000085  00000+0  00000+0 0  9993",
            "Line2": "2 43602  54.2047 199.8995 0008619  34.9366 325.2010  1.86227651 42764",
            "SatelliteNumber": "43602",
            "Classification": "U",
            "LaunchYear": "18",
            "LaunchNumber": "067",
            "PieceOfLaunch": "A",
            "EpochYear": "24",
            "EpochDay": 343.15680126,
            "FirstDerivativeMeanMotion": 8.5e-07,
            "SecondDerivativeMeanMotion": "00000+0",
            "BSTAR": "00000+0",
            "SetNumber": "999",
            "Inclination": 54.2047,
            "RAAN": 199.8995,
            "Eccentricity": 0.0008619,
            "ArgumentOfPerigee": 34.9366,
            "MeanAnomaly": 325.201,
            "MeanMotion": 1.86227651,
            "RevolutionNumber": "4276"
        },
        {
            "Name": "BEIDOU-3 M11 (C25)",
            "Line1": "1 43603U 18067B   24343.29031650  .00000087  00000+0  00000+0 0  9993",
            "Line2": "2 43603  54.2020 199.8597 0005222  30.7932 329.3185  1.86227163 42793",
            "SatelliteNumber": "43603",
            "Classification": "U",
            "LaunchYear": "18",
            "LaunchNumber": "067",
            "PieceOfLaunch": "B",
            "EpochYear": "24",
            "EpochDay": 343.2903165,
            "FirstDerivativeMeanMotion": 8.7e-07,
            "SecondDerivativeMeanMotion": "00000+0",
            "BSTAR": "00000+0",
            "SetNumber": "999",
            "Inclination": 54.202,
            "RAAN": 199.8597,
            "Eccentricity": 0.0005222,
            "ArgumentOfPerigee": 30.7932,
            "MeanAnomaly": 329.3185,
            "MeanMotion": 1.86227163,
            "RevolutionNumber": "4279"
        }
    ]
}